STARLINK-31883          
1 60020U 24111E   26068.45584134 -.00000605  00000+0 -83181-5 0  9991
2 60020  53.1608  77.0016 0001221  88.8970 271.2170 15.30190449 98946
YAM-7                   
1 60504U 24149AN  26068.71799904  .00009009  00000+0  30984-3 0  9997
2 60504  97.3828 149.4631 0001973 296.5121  63.5918 15.30304554 86835
